NORAD_CAT_ID,OBJECT_NAME,OBJECT_TYPE,EPOCH,MEAN_MOTION,ECCENTRICITY,INCLINATION,RA_OF_ASC_NODE,ARG_OF_PERICENTER,MEAN_ANOMALY,BSTAR,MEAN_MOTION_DOT,MEAN_MOTION_DDOT,TLE_LINE0,TLE_LINE1,TLE_LINE2,SEMIMAJOR_AXIS,PERIOD,APOGEE,PERIGEE,DECAYED
51982.0,STARLINK-3650,PAYLOAD,2022-04-10 22:00:00,15.611614800000002,0.0001105,53.2175,340.0312,75.2106,358.3739,-0.0090909,-0.00716966,0.0,0 STARLINK-3650,1 51982U 22025AC  22100.91667824 -.00716966  00000-0 -90909-2 0  9990,2 51982  53.2175 340.0312 0001105  75.2106 358.3739 15.61161480  3713,6762.438,92.239,385.05,383.556,0.0
51982.0,STARLINK-3650,PAYLOAD,2022-04-11 14:00:01,15.60140793,0.000123,53.2173,336.7965,90.7926,130.4777,-0.0094396,-0.00715768,0.0,0 STARLINK-3650,1 51982U 22025AC  22101.58334491 -.00715768  00000-0 -94396-2 0  9998,2 51982  53.2173 336.7965 0001230  90.7926 130.4777 15.60140793  3701,6765.387,92.299,388.084,386.42,0.0
51982.0,STARLINK-3650,PAYLOAD,2022-04-11 20:00:01,15.59756158,0.0001276,53.2174,335.587,74.7695,111.2505,-0.009523,-0.00711844,0.0,0 STARLINK-3650,1 51982U 22025AC  22101.83334491 -.00711844  00000-0 -95230-2 0  9995,2 51982  53.2174 335.5870 0001276  74.7695 111.2505 15.59756158  6502,6766.499,92.322,389.228,387.501,0.0
51982.0,STARLINK-3650,PAYLOAD,2022-04-11 22:00:00,15.59630234,0.000118,53.2173,335.184,80.2237,213.9687,-0.0096129,-0.00714812,0.0,0 STARLINK-3650,1 51982U 22025AC  22101.91667824 -.00714812  00000-0 -96129-2 0  9999,2 51982  53.2173 335.1840 0001180  80.2237 213.9687 15.59630234  3685,6766.863,92.33,389.527,387.93,0.0
51982.0,STARLINK-3650,PAYLOAD,2022-04-12 14:00:01,15.58610052,0.000107,53.2175,331.9567,88.3123,349.8889,-0.0099841,-0.00714067,0.0,0 STARLINK-3650,1 51982U 22025AC  22102.58334491 -.00714067  00000-0 -99841-2 0  9990,2 51982  53.2175 331.9567 0001070  88.3123 349.8889 15.58610052  3709,6769.816,92.39,392.405,390.957,0.0
51982.0,STARLINK-3650,PAYLOAD,2022-04-12 20:00:01,15.58228956,0.0001082,53.2176,330.7501,73.4999,328.0707,-0.010159,-0.00715958,0.0,0 STARLINK-3650,1 51982U 22025AC  22102.83334491 -.00715958  00000-0 -10159-1 0  9992,2 51982  53.2176 330.7501 0001082  73.4999 328.0707 15.58228956  6668,6770.92,92.413,393.517,392.052,0.0
51982.0,STARLINK-3650,PAYLOAD,2022-04-12 22:00:00,15.58100672,0.0001274999999999,53.2175,330.3479,71.1845,78.0999,-0.010188,-0.00714671,0.0,0 STARLINK-3650,1 51982U 22025AC  22102.91667824 -.00714671  00000-0 -10188-1 0  9993,2 51982  53.2175 330.3479 0001275  71.1845  78.0999 15.58100672  3695,6771.291,92.42,394.02,392.293,0.0
51982.0,STARLINK-3650,PAYLOAD,2022-04-13 14:00:03,15.57079494,0.0001178,53.2177,327.1278,87.822,201.9246,-0.01055,-0.00712269,0.0,0 STARLINK-3650,1 51982U 22025AC  22103.58336806 -.00712269  00000-0 -10550-1 0  9994,2 51982  53.2177 327.1278 0001178  87.8220 201.9246 15.57079494  3723,6774.252,92.481,396.915,395.319,0.0
51982.0,STARLINK-3650,PAYLOAD,2022-04-13 20:00:01,15.56696074,0.0001259,53.2176,325.9241,77.7721,173.9012,-0.010679,-0.00710818,0.0,0 STARLINK-3650,1 51982U 22025AC  22103.83335648 -.00710818  00000-0 -10679-1 0  9995,2 51982  53.2176 325.9241 0001259  77.7721 173.9012 15.56696074  6823,6775.364000000001,92.504,398.082,396.376,0.0
51982.0,STARLINK-3650,PAYLOAD,2022-04-13 22:00:00,15.5657197,0.0001118,53.2176,325.5231,74.3024,284.5586,-0.010826,-0.00716697,0.0,0 STARLINK-3650,1 51982U 22025AC  22103.91667824 -.00716697  00000-0 -10826-1 0  9993,2 51982  53.2176 325.5231 0001118  74.3024 284.5586 15.56571970  3707,6775.724,92.511,398.346,396.831,0.0
51982.0,STARLINK-3650,PAYLOAD,2022-04-14 14:00:01,15.55550862,0.0001223,53.2175,322.3105,80.9781,54.5384,-0.011192,-0.00713536,0.0,0 STARLINK-3650,1 51982U 22025AC  22104.58334491 -.00713536  00000-0 -11192-1 0  9994,2 51982  53.2175 322.3105 0001223  80.9781  54.5384 15.55550862  3696,6778.689,92.572,401.383,399.725,0.0
51982.0,STARLINK-3650,PAYLOAD,2022-04-14 20:00:01,15.55168592,0.0001185,53.2173,321.1094,76.0814,20.0479,-0.01137,-0.00714572,0.0,0 STARLINK-3650,1 51982U 22025AC  22104.83334491 -.00714572  00000-0 -11370-1 0  9991,2 51982  53.2173 321.1094 0001185  76.0814  20.0479 15.55168592  6970,6779.8,92.594,402.468,400.861,0.0
51982.0,STARLINK-3650,PAYLOAD,2022-04-14 22:00:00,15.55040255,0.0001311,53.2174,320.7091,79.3224,123.6014,-0.011399,-0.00713152,0.0,0 STARLINK-3650,1 51982U 22025AC  22104.91667824 -.00713152  00000-0 -11399-1 0  9993,2 51982  53.2174 320.7091 0001311  79.3224 123.6014 15.55040255  3703,6780.1730000000025,92.602,402.926,401.149,0.0
51982.0,STARLINK-3650,PAYLOAD,2022-04-15 14:06:08,15.54997067,0.0001382,53.217,317.4613,85.3669,274.7501,-0.0048998,-0.00321651,0.0,0 STARLINK-3650,1 51982U 22025AC  22105.58759586 -.00321651  00000-0 -48998-2 0  9999,2 51982  53.2170 317.4613 0001382  85.3669 274.7501 15.54997067  5993,6780.2980000000025,92.605,403.1,401.226,0.0
51982.0,STARLINK-3650,PAYLOAD,2022-04-15 20:00:01,15.53636988,0.0001222,53.2175,316.3057,78.4568,216.6795,-0.011977,-0.00711697,0.0,0 STARLINK-3650,1 51982U 22025AC  22105.83334491 -.00711697  00000-0 -11977-1 0  9990,2 51982  53.2175 316.3057 0001222  78.4568 216.6795 15.53636988  7131,6784.255,92.686,406.949,405.291,0.0
51982.0,STARLINK-3650,PAYLOAD,2022-04-15 22:00:00,15.53512469,0.0001142,53.2177,315.9063,71.3954,330.0745,-0.012121,-0.0071652,0.0,0 STARLINK-3650,1 51982U 22025AC  22105.91667824 -.00716520  00000-0 -12121-1 0  9990,2 51982  53.2177 315.9063 0001142  71.3954 330.0745 15.53512469  3675,6784.6169999999975,92.693,407.257,405.707,0.0
51982.0,STARLINK-3650,PAYLOAD,2022-04-16 14:00:01,15.52490513,0.0001318,53.2177,312.7086,73.157,97.6151,-0.012489,-0.00711751,0.0,0 STARLINK-3650,1 51982U 22025AC  22106.58334491 -.00711751  00000-0 -12489-1 0  9993,2 51982  53.2177 312.7086 0001318  73.1570  97.6151 15.52490513  3709,6787.594,92.754,410.354,408.565,0.0
51982.0,STARLINK-3650,PAYLOAD,2022-04-16 20:00:01,15.52108246,0.0001356,53.2175,311.513,60.11,68.5173,-0.012694,-0.00713339,0.0,0 STARLINK-3650,1 51982U 22025AC  22106.83334491 -.00713339  00000-0 -12694-1 0  9993,2 51982  53.2175 311.5130 0001356  60.1100  68.5173 15.52108246  7288,6788.709,92.777,411.494,409.653,0.0
51982.0,STARLINK-3650,PAYLOAD,2022-04-16 22:00:01,15.51980237,0.0001384,53.2176,311.1144,66.9234,167.6439,-0.012731,-0.0071222,0.0,0 STARLINK-3650,1 51982U 22025AC  22106.91668981 -.00712220  00000-0 -12731-1 0  9996,2 51982  53.2176 311.1144 0001384  66.9234 167.6439 15.51980237  3697,6789.081999999999,92.785,411.887,410.007,0.0
51982.0,STARLINK-3650,PAYLOAD,2022-04-17 14:00:01,15.50960181,0.0001111,53.2176,307.9240000000001,81.1941,278.9335,-0.013187,-0.00720252,0.0,0 STARLINK-3650,1 51982U 22025AC  22107.58334491 -.00720252  00000-0 -13187-1 0  9996,2 51982  53.2176 307.9240 0001111  81.1941 278.9335 15.50960181  3718,6792.058000000001,92.846,414.67800000000005,413.169,0.0
51982.0,STARLINK-3650,PAYLOAD,2022-04-17 20:00:01,15.50574266,0.000118,53.2174,306.7305,83.3878,233.2172,-0.013246,-0.0071404,0.0,0 STARLINK-3650,1 51982U 22025AC  22107.83334491 -.00714040  00000-0 -13246-1 0  9998,2 51982  53.2174 306.7305 0001180  83.3878 233.2172 15.50574266  7446,6793.185,92.869,415.852,414.249,0.0
51982.0,STARLINK-3650,PAYLOAD,2022-04-17 22:00:00,15.50414375,0.0001124,53.2174,306.3327,77.1841,344.843,-0.011747,-0.00627927,0.0,0 STARLINK-3650,1 51982U 22025AC  22107.91667824 -.00627927  00000-0 -11747-1 0  9997,2 51982  53.2174 306.3327 0001124  77.1841 344.8430 15.50414375  3700,6793.651999999999,92.878,416.281,414.754,0.0
51982.0,STARLINK-3650,PAYLOAD,2022-04-18 04:00:00,15.49933959,0.000113,53.2173,305.1371,85.8804,292.1743,-0.0013725,-0.00077713,0.0,0 STARLINK-3650,1 51982U 22025AC  22108.16667824 -.00077713  00000-0 -13725-2 0  9996,2 51982  53.2173 305.1371 0001130  85.8804 292.1743 15.49933959  7491,6795.056,92.907,417.689,416.153,0.0
51982.0,STARLINK-3650,PAYLOAD,2022-04-18 12:00:00,15.49886384,0.000116,53.2173,303.5426,80.5701,358.4227,-2.4255e-05,-1.828e-05,0.0,0 STARLINK-3650,1 51982U 22025AC  22108.50001157 -.00001828  00000-0 -24255-4 0  9991,2 51982  53.2173 303.5426 0001160  80.5701 358.4227 15.49886384  7543,6795.195,92.91,417.848,416.272,0.0
51982.0,STARLINK-3650,PAYLOAD,2022-04-18 14:00:01,15.49886508,0.0001258,53.2175,303.1448,78.468,105.753,-1.5253e-05,-1.317e-05,0.0,0 STARLINK-3650,1 51982U 22025AC  22108.58334491 -.00001317  00000-0 -15253-4 0  9990,2 51982  53.2175 303.1448 0001258  78.4680 105.7530 15.49886508  3707,6795.195,92.91,417.915,416.205,0.0
51982.0,STARLINK-3650,PAYLOAD,2022-04-18 20:00:01,15.50015543,0.0001363,53.2165,301.9448,77.9602,62.111,-0.0050098,-0.00276266,0.0,0 STARLINK-3650,1 51982U 22025AC  22108.83334491 -.00276266  00000-0 -50098-2 0  9999,2 51982  53.2165 301.9448 0001363  77.9602  62.1110 15.50015543  7593,6794.818,92.902,417.609,415.757,0.0
51982.0,STARLINK-3650,PAYLOAD,2022-04-18 22:00:00,15.50014479,0.0001301,53.2167,301.5475,79.3518,165.965,-0.006828,-0.00371848,0.0,0 STARLINK-3650,1 51982U 22025AC  22108.91667824 -.00371848  00000-0 -68280-2 0  9991,2 51982  53.2167 301.5475 0001301  79.3518 165.9650 15.50014479  3690,6794.821,92.902,417.57,415.802,0.0
51982.0,STARLINK-3650,PAYLOAD,2022-04-19 04:00:00,15.49900479,0.0001262999999999,53.2169,300.3526,85.4437,115.5745,-0.012159,-0.00637397,0.0,0 STARLINK-3650,1 51982U 22025AC  22109.16667824 -.00637397  00000-0 -12159-1 0  9996,2 51982  53.2169 300.3526 0001263  85.4437 115.5745 15.49900479  7659,6795.154,92.909,417.877,416.161,0.0
51982.0,STARLINK-3650,PAYLOAD,2022-04-19 14:00:01,15.49324678,0.0001134,53.2176,298.3595,73.2419,293.5127,-0.013415,-0.00684785,0.0,0 STARLINK-3650,1 51982U 22025AC  22109.58334491 -.00684785  00000-0 -13415-1 0  9992,2 51982  53.2176 298.3595 0001134  73.2419 293.5127 15.49324678  3705,6796.837,92.944,419.473,417.932,0.0
